CCSDS_OMM_VERS,COMMENT,CREATION_DATE,ORIGINATOR,OBJECT_NAME,OBJECT_ID,CENTER_NAME,REF_FRAME,TIME_SYSTEM,MEAN_ELEMENT_THEORY,EPOCH,MEAN_MOTION,ECCENTRICITY,INCLINATION,RA_OF_ASC_NODE,ARG_OF_PERICENTER,MEAN_ANOMALY,EPHEMERIS_TYPE,CLASSIFICATION_TYPE,NORAD_CAT_ID,ELEMENT_SET_NO,REV_AT_EPOCH,BSTAR,MEAN_MOTION_DOT,MEAN_MOTION_DDOT,SEMIMAJOR_AXIS,PERIOD,APOAPSIS,PERIAPSIS,OBJECT_TYPE,RCS_SIZE,COUNTRY_CODE,LAUNCH_DATE,SITE,DECAY_DATE,FILE,GP_ID,TLE_LINE0,TLE_LINE1,TLE_LINE2
"2.0","GENERATED VIA SPACE-TRACK.ORG API","2014-06-14T07:23:41","18 SPCS","PAYLOAD B","2013-037B","EARTH","TEME","UTC","SGP4","2014-06-14T04:29:55.400928","14.67531354","0.00061340","98.0380","182.0802","50.3503","309.8248","0","U","39209","999","4827","0.00009012600000","0.00000463","0.0000000000000","7047.101","98.123","673.289","664.643","PAYLOAD","LARGE","PRC","2013-07-19","TSC","","1698029","96187615","0 PAYLOAD B","1 39209U 13037B   14165.18744677  .00000463  00000-0  90126-4 0  9993","2 39209 098.0380 182.0802 0006134 050.3503 309.8248 14.67531354 48278"
"2.0","GENERATED VIA SPACE-TRACK.ORG API","2014-06-14T06:24:13","18 SPCS","PAYLOAD A","2013-037A","EARTH","TEME","UTC","SGP4","2014-06-14T05:39:27.081503","14.68005596","0.00104460","98.0382","182.4868","52.2569","307.9601","0","U","39208","999","4831","0.00003888400000","0.00000175","0.0000000000000","7045.583","98.092","674.808","660.088","PAYLOAD","LARGE","PRC","2013-07-19","TSC","","1697937","96185338","0 PAYLOAD A","1 39208U 13037A   14165.23573011  .00000175  00000-0  38884-4 0  9993","2 39208 098.0382 182.4868 0010446 052.2569 307.9601 14.68005596 48311"
"2.0","GENERATED VIA SPACE-TRACK.ORG API","2014-06-14T15:24:25","18 SPCS","PAYLOAD B","2013-037B","EARTH","TEME","UTC","SGP4","2014-06-14T11:02:39.307488","14.67530768","0.00061110","98.0380","182.3476","49.0244","311.1491","0","U","39209","999","4831","0.00005099400000","0.00000241","0.0000000000000","7047.103","98.124","673.274","664.661","PAYLOAD","LARGE","PRC","2013-07-19","TSC","","1698160","96190399","0 PAYLOAD B","1 39209U 13037B   14165.46017717  .00000241  00000-0  50994-4 0  9995","2 39209 098.0380 182.3476 0006111 049.0244 311.1491 14.67530768 48319"
"2.0","GENERATED VIA SPACE-TRACK.ORG API","2014-06-14T15:24:40","18 SPCS","PAYLOAD C","2013-037C","EARTH","TEME","UTC","SGP4","2014-06-14T12:07:37.628832","14.93950610","0.00336410","97.6795","181.3573","23.2651","337.0082","0","U","39210","999","4912","0.00006075600000","0.00000596","0.0000000000000","6963.773","96.388","609.065","562.211","PAYLOAD","LARGE","PRC","2013-07-19","TSC","","1698161","96190434","0 PAYLOAD C","1 39210U 13037C   14165.50529663  .00000596  00000-0  60756-4 0  9990","2 39210 097.6795 181.3573 0033641 023.2651 337.0082 14.93950610 49121"
"2.0","GENERATED VIA SPACE-TRACK.ORG API","2014-06-14T14:22:45","18 SPCS","PAYLOAD A","2013-037A","EARTH","TEME","UTC","SGP4","2014-06-14T12:12:03.271679","14.68006873","0.00104670","98.0385","182.7551","51.2818","308.9318","0","U","39208","999","4835","0.00010061000000","0.00000529","0.0000000000000","7045.579","98.092","674.819","660.069","PAYLOAD","LARGE","PRC","2013-07-19","TSC","","1698065","96188261","0 PAYLOAD A","1 39208U 13037A   14165.50837120  .00000529  00000-0  10061-3 0  9996","2 39208 098.0385 182.7551 0010467 051.2818 308.9318 14.68006873 48354"
"2.0","GENERATED VIA SPACE-TRACK.ORG API","2014-06-14T22:27:15","18 SPCS","PAYLOAD A","2013-037A","EARTH","TEME","UTC","SGP4","2014-06-14T17:06:30.456864","14.68004812","0.00104560","98.0385","182.9558","51.0848","309.1221","0","U","39208","999","4838","-0.00000046815000","-0.00000051","0.0000000000000","7045.586","98.092","674.818","660.084","PAYLOAD","LARGE","PRC","2013-07-19","TSC","","1698239","96191227","0 PAYLOAD A","1 39208U 13037A   14165.71285251 -.00000051  00000-0 -46815-6 0  9992","2 39208 098.0385 182.9558 0010456 051.0848 309.1221 14.68004812 48382"
"2.0","GENERATED VIA SPACE-TRACK.ORG API","2014-06-14T23:23:21","18 SPCS","PAYLOAD B","2013-037B","EARTH","TEME","UTC","SGP4","2014-06-14T19:13:34.224384","14.67529707","0.00061330","98.0379","182.6824","48.1050","312.0667","0","U","39209","999","4836","0.00000280980000","-0.00000032","0.0000000000000","7047.106","98.124","673.293","664.649","PAYLOAD","LARGE","PRC","2013-07-19","TSC","","1698332","96193251","0 PAYLOAD B","1 39209U 13037B   14165.80109056 -.00000032  00000-0  28098-5 0  9991","2 39209 098.0379 182.6824 0006133 048.1050 312.0667 14.67529707 48367"
"2.0","GENERATED VIA SPACE-TRACK.ORG API","2014-06-14T23:24:36","18 SPCS","PAYLOAD C","2013-037C","EARTH","TEME","UTC","SGP4","2014-06-14T20:09:52.129151","14.93950772","0.00335840","97.6791","181.6850","22.2307","338.0376","0","U","39210","999","4917","0.00005951500000","0.00000582","0.0000000000000","6963.772","96.388","609.024","562.250","PAYLOAD","LARGE","PRC","2013-07-19","TSC","","1698334","96193297","0 PAYLOAD C","1 39210U 13037C   14165.84018668  .00000582  00000-0  59515-4 0  9991","2 39210 097.6791 181.6850 0033584 022.2307 338.0376 14.93950772 49172"
"2.0","GENERATED VIA SPACE-TRACK.ORG API","2014-06-15T07:30:42","18 SPCS","PAYLOAD B","2013-037B","EARTH","TEME","UTC","SGP4","2014-06-15T03:24:29.046240","14.67530755","0.00060610","98.0377","183.0170","47.5568","312.6152","0","U","39209","999","4841","0.00003943100000","0.00000176","0.0000000000000","7047.103","98.124","673.239","664.697","PAYLOAD","LARGE","PRC","2013-07-19","TSC","","1698515","96195957","0 PAYLOAD B","1 39209U 13037B   14166.14200285  .00000176  00000-0  39431-4 0  9995","2 39209 098.0377 183.0170 0006061 047.5568 312.6152 14.67530755 48417"
"2.0","GENERATED VIA SPACE-TRACK.ORG API","2014-06-15T07:31:46","18 SPCS","PAYLOAD C","2013-037C","EARTH","TEME","UTC","SGP4","2014-06-15T04:12:06.518016","14.93951633","0.00335090","97.6789","182.0118","21.1522","339.1085","0","U","39210","999","4922","0.00006510800000","0.00000643","0.0000000000000","6963.770","96.388","608.970","562.300","PAYLOAD","LARGE","PRC","2013-07-19","TSC","","1698516","96195998","0 PAYLOAD C","1 39210U 13037C   14166.17507544  .00000643  00000-0  65108-4 0  9997","2 39210 097.6789 182.0118 0033509 021.1522 339.1085 14.93951633 49227"
"2.0","GENERATED VIA SPACE-TRACK.ORG API","2014-06-15T15:40:49","18 SPCS","PAYLOAD B","2013-037B","EARTH","TEME","UTC","SGP4","2014-06-15T11:35:23.862911","14.67531785","0.00060780","98.0379","183.3516","46.7235","313.4486","0","U","39209","999","4846","0.00007175100000","0.00000359","0.0000000000000","7047.100","98.123","673.248","664.681","PAYLOAD","LARGE","PRC","2013-07-19","TSC","","1698672","96199460","0 PAYLOAD B","1 39209U 13037B   14166.48291508  .00000359  00000-0  71751-4 0  9994","2 39209 098.0379 183.3516 0006078 046.7235 313.4486 14.67531785 48464"
"2.0","GENERATED VIA SPACE-TRACK.ORG API","2014-06-15T15:40:45","18 SPCS","PAYLOAD C","2013-037C","EARTH","TEME","UTC","SGP4","2014-06-15T12:14:20.904287","14.93953025","0.00335220","97.6789","182.3393","20.0451","340.2092","0","U","39210","999","4927","0.00008493900000","0.00000856","0.0000000000000","6963.765","96.388","608.974","562.286","PAYLOAD","LARGE","PRC","2013-07-19","TSC","","1698671","96199442","0 PAYLOAD C","1 39210U 13037C   14166.50996417  .00000856  00000-0  84939-4 0  9994","2 39210 097.6789 182.3393 0033522 020.0451 340.2092 14.93953025 49272"
"2.0","GENERATED VIA SPACE-TRACK.ORG API","2014-06-15T14:27:49","18 SPCS","PAYLOAD A","2013-037A","EARTH","TEME","UTC","SGP4","2014-06-15T12:44:19.396320","14.68004834","0.00104240","98.0383","183.7587","48.4908","311.7200","0","U","39208","999","4850","-0.00000292940000","-0.00000065","0.0000000000000","7045.586","98.092","674.795","660.106","PAYLOAD","LARGE","PRC","2013-07-19","TSC","","1698560","96196753","0 PAYLOAD A","1 39208U 13037A   14166.53078005 -.00000065  00000-0 -29294-5 0  9996","2 39208 098.0383 183.7587 0010424 048.4908 311.7200 14.68004834 48507"
"2.0","GENERATED VIA SPACE-TRACK.ORG API","2014-06-15T23:06:09","18 SPCS","PAYLOAD B","2013-037B","EARTH","TEME","UTC","SGP4","2014-06-15T19:46:18.697728","14.67531692","0.00059640","98.0380","183.6860","46.5353","313.6349","0","U","39209","999","4851","0.00006660900000","0.00000330","0.0000000000000","7047.100","98.123","673.168","664.762","PAYLOAD","LARGE","PRC","2013-07-19","TSC","","1698826","96201961","0 PAYLOAD B","1 39209U 13037B   14166.82382752  .00000330  00000-0  66609-4 0  9999","2 39209 098.0380 183.6860 0005964 046.5353 313.6349 14.67531692 48516"
"2.0","GENERATED VIA SPACE-TRACK.ORG API","2014-06-15T23:06:18","18 SPCS","PAYLOAD C","2013-037C","EARTH","TEME","UTC","SGP4","2014-06-15T20:16:35.286239","14.93953107","0.00334430","97.6789","182.6664","18.9964","341.2485","0","U","39210","999","4932","0.00007616700000","0.00000762","0.0000000000000","6963.765","96.388","608.919","562.341","PAYLOAD","LARGE","PRC","2013-07-19","TSC","","1698827","96201987","0 PAYLOAD C","1 39210U 13037C   14166.84485285  .00000762  00000-0  76167-4 0  9997","2 39210 097.6789 182.6664 0033443 018.9964 341.2485 14.93953107 49327"
"2.0","GENERATED VIA SPACE-TRACK.ORG API","2014-06-15T22:21:58","18 SPCS","PAYLOAD A","2013-037A","EARTH","TEME","UTC","SGP4","2014-06-15T20:55:04.726272","14.68005233","0.00104330","98.0387","184.0937","47.3018","312.9080","0","U","39208","999","4855","0.00001179300000","0.00000019","0.0000000000000","7045.584","98.092","674.800","660.099","PAYLOAD","LARGE","PRC","2013-07-19","TSC","","1698761","96200376","0 PAYLOAD A","1 39208U 13037A   14166.87158248  .00000019  00000-0  11793-4 0  9992","2 39208 098.0387 184.0937 0010433 047.3018 312.9080 14.68005233 48552"
